start=new Date('2022-03-18T00:00:00.000Z').valueOf();
sats=[{"OBJECT_TYPE":"PAYLOAD","CENTER_NAME":"EARTH","OBJECT_ID":"2020-019BL","DECAY_DATE":null,"CLASSIFICATION_TYPE":"U","MEAN_ELEMENT_THEORY":"SGP4","MEAN_MOTION":"15.03150879","INCLINATION":"52.9991","REF_FRAME":"TEME","TLE_LINE1":"1 45418U 20019BL  22076.83548306  .00009926  00000-0  74587-3 0  9998","ELEMENT_SET_NO":"999","LAUNCH_DATE":"2020-03-18","TLE_LINE2":"2 45418  52.9991 229.7015 0000919 112.5887 247.5197 15.03150879110158","TIME_SYSTEM":"UTC","RCS_SIZE":"LARGE","PERIAPSIS":"556.552","ECCENTRICITY":"0.00009190","BSTAR":"0.00074587000000","ARG_OF_PERICENTER":"112.5887","COUNTRY_CODE":"US","RA_OF_ASC_NODE":"229.7015","MEAN_ANOMALY":"247.5197","FILE":"3363151","OBJECT_NAME":"STARLINK-1299","MEAN_MOTION_DDOT":"0.0000000000000","SITE":"AFETR","NORAD_CAT_ID":"45418","SEMIMAJOR_AXIS":"6935.325","APOAPSIS":"557.827","PERIOD":"95.799","EPHEMERIS_TYPE":"0","REV_AT_EPOCH":"11015","EPOCH":"2022-03-17T20:03:05.736384","MEAN_MOTION_DOT":"0.00009926","GP_ID":"198989688"},{"SEMIMAJOR_AXIS":"6925.387","NORAD_CAT_ID":"45419","APOAPSIS":"548.188","PERIOD":"95.593","EPHEMERIS_TYPE":"0","REV_AT_EPOCH":"11047","EPOCH":"2022-03-17T17:22:58.441728","MEAN_MOTION_DOT":"0.00012039","GP_ID":"198989938","PERIAPSIS":"546.315","BSTAR":"0.00082599000000","ECCENTRICITY":"0.00013520","ARG_OF_PERICENTER":"65.3838","COUNTRY_CODE":"US","RA_OF_ASC_NODE":"209.2349","MEAN_ANOMALY":"294.7291","FILE":"3363151","OBJECT_NAME":"STARLINK-1308","MEAN_MOTION_DDOT":"0.0000000000000","SITE":"AFETR","MEAN_MOTION":"15.06387539","INCLINATION":"53.0553","TLE_LINE1":"1 45419U 20019BM  22076.72428752  .00012039  00000-0  82599-3 0  9990","REF_FRAME":"TEME","ELEMENT_SET_NO":"999","LAUNCH_DATE":"2020-03-18","TLE_LINE2":"2 45419  53.0553 209.2349 0001352  65.3838 294.7291 15.06387539110473","TIME_SYSTEM":"UTC","RCS_SIZE":"LARGE","OBJECT_TYPE":"PAYLOAD","CENTER_NAME":"EARTH","OBJECT_ID":"2020-019BM","DECAY_DATE":null,"CLASSIFICATION_TYPE":"U","MEAN_ELEMENT_THEORY":"SGP4"},{"RCS_SIZE":"LARGE","TIME_SYSTEM":"UTC","LAUNCH_DATE":"2020-04-22","TLE_LINE2":"2 45531  53.0552 150.2709 0001450  65.4092 294.7047 15.06412433106065","TLE_LINE1":"1 45531U 20025A   22076.49392367  .00035815  00000-0  24103-2 0  9991","REF_FRAME":"TEME","ELEMENT_SET_NO":"999","INCLINATION":"53.0552","MEAN_MOTION":"15.06412433","CLASSIFICATION_TYPE":"U","MEAN_ELEMENT_THEORY":"SGP4","DECAY_DATE":null,"OBJECT_ID":"2020-025A","CENTER_NAME":"EARTH","OBJECT_TYPE":"PAYLOAD","GP_ID":"198963544","EPOCH":"2022-03-17T11:51:15.005088","MEAN_MOTION_DOT":"0.00035815","REV_AT_EPOCH":"10606","EPHEMERIS_TYPE":"0","PERIOD":"95.591","APOAPSIS":"548.180","NORAD_CAT_ID":"45531","SEMIMAJOR_AXIS":"6925.310","SITE":"AFETR","OBJECT_NAME":"STARLINK-1329","MEAN_MOTION_DDOT":"0.0000000000000","MEAN_ANOMALY":"294.7047","FILE":"3363104","ARG_OF_PERICENTER":"65.4092","COUNTRY_CODE":"US","RA_OF_ASC_NODE":"150.2709","PERIAPSIS":"546.171","ECCENTRICITY":"0.00014500","BSTAR":"0.00241030000000"},{"CENTER_NAME":"EARTH","OBJECT_TYPE":"PAYLOAD","MEAN_ELEMENT_THEORY":"SGP4","CLASSIFICATION_TYPE":"U","OBJECT_ID":"2020-025B","DECAY_DATE":null,"MEAN_MOTION":"15.06380693","INCLINATION":"53.0540","ELEMENT_SET_NO":"999","TLE_LINE1":"1 45532U 20025B   22076.50496586 -.00003261  00000-0 -20027-3 0  9996","REF_FRAME":"TEME","TIME_SYSTEM":"UTC","RCS_SIZE":"LARGE","TLE_LINE2":"2 45532  53.0540 150.2177 0001064  89.5322 270.5789 15.06380693106063","LAUNCH_DATE":"2020-04-22","COUNTRY_CODE":"US","ARG_OF_PERICENTER":"89.5322","RA_OF_ASC_NODE":"150.2177","FILE":"3363104","MEAN_ANOMALY":"270.5789","ECCENTRICITY":"0.00010640","BSTAR":"-0.00020027000000","PERIAPSIS":"546.536","SITE":"AFETR","MEAN_MOTION_DDOT":"0.0000000000000","OBJECT_NAME":"STARLINK-1338","PERIOD":"95.593","EPHEMERIS_TYPE":"0","SEMIMAJOR_AXIS":"6925.408","NORAD_CAT_ID":"45532","APOAPSIS":"548.010","MEAN_MOTION_DOT":"-0.00003261","EPOCH":"2022-03-17T12:07:09.050304","GP_ID":"198964795","REV_AT_EPOCH":"10606"},{"MEAN_MOTION_DDOT":"0.0000000000000","OBJECT_NAME":"STARLINK-1339","SITE":"AFETR","BSTAR":"0.00086067000000","ECCENTRICITY":"0.00049420","PERIAPSIS":"449.838","FILE":"3363104","MEAN_ANOMALY":"329.2147","ARG_OF_PERICENTER":"30.9145","COUNTRY_CODE":"US","RA_OF_ASC_NODE":"129.1842","REV_AT_EPOCH":"10636","GP_ID":"198964545","MEAN_MOTION_DOT":"0.00031983","EPOCH":"2022-03-17T13:03:46.008000","APOAPSIS":"456.590","SEMIMAJOR_AXIS":"6831.349","NORAD_CAT_ID":"45533","EPHEMERIS_TYPE":"0","PERIOD":"93.653","OBJECT_ID":"2020-025C","DECAY_DATE":null,"MEAN_ELEMENT_THEORY":"SGP4","CLASSIFICATION_TYPE":"U","OBJECT_TYPE":"PAYLOAD","CENTER_NAME":"EARTH","TLE_LINE2":"2 45533  53.0476 129.1842 0004942  30.9145 329.2147 15.37598808106363","LAUNCH_DATE":"2020-04-22","RCS_SIZE":"LARGE","TIME_SYSTEM":"UTC","ELEMENT_SET_NO":"999","REF_FRAME":"TEME","TLE_LINE1":"1 45533U 20025C   22076.54428250  .00031983  00000-0  86067-3 0  9990","MEAN_MOTION":"15.37598808","INCLINATION":"53.0476"},{"SITE":"AFETR","OBJECT_NAME":"STARLINK-1341","MEAN_MOTION_DDOT":"0.0000000000000","ARG_OF_PERICENTER":"65.4425","COUNTRY_CODE":"US","RA_OF_ASC_NODE":"150.1684","MEAN_ANOMALY":"294.6737","FILE":"3363104","PERIAPSIS":"546.096","ECCENTRICITY":"0.00016640","BSTAR":"0.00045256000000","EPOCH":"2022-03-17T12:23:06.003744","MEAN_MOTION_DOT":"0.00006464","GP_ID":"198963794","REV_AT_EPOCH":"10606","PERIOD":"95.593","EPHEMERIS_TYPE":"0","NORAD_CAT_ID":"45534","SEMIMAJOR_AXIS":"6925.383","APOAPSIS":"548.401","CLASSIFICATION_TYPE":"U","MEAN_ELEMENT_THEORY":"SGP4","OBJECT_ID":"2020-025D","DECAY_DATE":null,"CENTER_NAME":"EARTH","OBJECT_TYPE":"PAYLOAD","TIME_SYSTEM":"UTC","RCS_SIZE":"LARGE","LAUNCH_DATE":"2020-04-22","TLE_LINE2":"2 45534  53.0532 150.1684 0001664  65.4425 294.6737 15.06388603106060","MEAN_MOTION":"15.06388603","INCLINATION":"53.0532","REF_FRAME":"TEME","TLE_LINE1":"1 45534U 20025D   22076.51604171  .00006464  00000-0  45256-3 0  9997","ELEMENT_SET_NO":"999"},{"PERIOD":"95.591","EPHEMERIS_TYPE":"0","NORAD_CAT_ID":"45535","SEMIMAJOR_AXIS":"6925.299","APOAPSIS":"548.265","MEAN_MOTION_DOT":"-0.00002235","EPOCH":"2022-03-17T16:00:34.432416","GP_ID":"198990201","REV_AT_EPOCH":"10609","RA_OF_ASC_NODE":"149.4943","COUNTRY_CODE":"US","ARG_OF_PERICENTER":"68.1058","FILE":"3363151","MEAN_ANOMALY":"292.0099","BSTAR":"-0.00013115000000","ECCENTRICITY":"0.00015890","PERIAPSIS":"546.064","SITE":"AFETR","MEAN_MOTION_DDOT":"0.0000000000000","OBJECT_NAME":"STARLINK-1350","MEAN_MOTION":"15.06416031","INCLINATION":"53.0524","ELEMENT_SET_NO":"999","TLE_LINE1":"1 45535U 20025E   22076.66706519 -.00002235  00000-0 -13115-3 0  9996","REF_FRAME":"TEME","TIME_SYSTEM":"UTC","RCS_SIZE":"LARGE","TLE_LINE2":"2 45535  53.0524 149.4943 0001589  68.1058 292.0099 15.06416031106092","LAUNCH_DATE":"2020-04-22","CENTER_NAME":"EARTH","OBJECT_TYPE":"PAYLOAD","MEAN_ELEMENT_THEORY":"SGP4","CLASSIFICATION_TYPE":"U","OBJECT_ID":"2020-025E","DECAY_DATE":null},{"SEMIMAJOR_AXIS":"6925.311","NORAD_CAT_ID":"45536","APOAPSIS":"548.255","PERIOD":"95.591","EPHEMERIS_TYPE":"0","REV_AT_EPOCH":"10606","EPOCH":"2022-03-17T12:54:51.060672","MEAN_MOTION_DOT":"0.00001486","GP_ID":"198964296","PERIAPSIS":"546.096","ECCENTRICITY":"0.00015590","BSTAR":"0.00011860000000","COUNTRY_CODE":"US","ARG_OF_PERICENTER":"58.5040","RA_OF_ASC_NODE":"150.0686","MEAN_ANOMALY":"301.6101","FILE":"3363104","OBJECT_NAME":"STARLINK-1352","MEAN_MOTION_DDOT":"0.0000000000000","SITE":"AFETR","INCLINATION":"53.0532","MEAN_MOTION":"15.06412315","TLE_LINE1":"1 45536U 20025F   22076.53809098  .00001486  00000-0  11860-3 0  9999","REF_FRAME":"TEME","ELEMENT_SET_NO":"999","LAUNCH_DATE":"2020-04-22","TLE_LINE2":"2 45536  53.0532 150.0686 0001559  58.5040 301.6101 15.06412315106064","TIME_SYSTEM":"UTC","RCS_SIZE":"LARGE","OBJECT_TYPE":"PAYLOAD","CENTER_NAME":"EARTH","DECAY_DATE":null,"OBJECT_ID":"2020-025F","CLASSIFICATION_TYPE":"U","MEAN_ELEMENT_THEORY":"SGP4"},{"TIME_SYSTEM":"UTC","RCS_SIZE":"LARGE","TLE_LINE2":"2 45537  52.9983 114.2532 0002749  70.9917 289.1375 15.18836942106554","LAUNCH_DATE":"2020-04-22","MEAN_MOTION":"15.18836942","INCLINATION":"52.9983","ELEMENT_SET_NO":"999","TLE_LINE1":"1 45537U 20025G   22076.61682305  .00012268  00000-0  59592-3 0  9993","REF_FRAME":"TEME","MEAN_ELEMENT_THEORY":"SGP4","CLASSIFICATION_TYPE":"U","DECAY_DATE":null,"OBJECT_ID":"2020-025G","CENTER_NAME":"EARTH","OBJECT_TYPE":"PAYLOAD","MEAN_MOTION_DOT":"0.00012268","EPOCH":"2022-03-17T14:48:13.511520","GP_ID":"198989200","REV_AT_EPOCH":"10655","PERIOD":"94.809","EPHEMERIS_TYPE":"0","SEMIMAJOR_AXIS":"6887.491","NORAD_CAT_ID":"45537","APOAPSIS":"511.250","SITE":"AFETR","MEAN_MOTION_DDOT":"0.0000000000000","OBJECT_NAME":"STARLINK-1353","COUNTRY_CODE":"US","ARG_OF_PERICENTER":"70.9917","RA_OF_ASC_NODE":"114.2532","FILE":"3363151","MEAN_ANOMALY":"289.1375","ECCENTRICITY":"0.00027490","BSTAR":"0.00059592000000","PERIAPSIS":"507.463"},{"TLE_LINE2":"2 45538  53.0537 149.3594 0001549  60.6349 299.4794 15.06398229106097","LAUNCH_DATE":"2020-04-22","TIME_SYSTEM":"UTC","RCS_SIZE":"LARGE","MEAN_MOTION":"15.06398229","INCLINATION":"53.0537","ELEMENT_SET_NO":"999","TLE_LINE1":"1 45538U 20025H   22076.69664538  .00019324  00000-0  13127-2 0  9993","REF_FRAME":"TEME","OBJECT_ID":"2020-025H","DECAY_DATE":null,"MEAN_ELEMENT_THEORY":"SGP4","CLASSIFICATION_TYPE":"U","OBJECT_TYPE":"PAYLOAD","CENTER_NAME":"EARTH","REV_AT_EPOCH":"10609","MEAN_MOTION_DOT":"0.00019324","EPOCH":"2022-03-17T16:43:10.160832","GP_ID":"198989450","SEMIMAJOR_AXIS":"6925.354","NORAD_CAT_ID":"45538","APOAPSIS":"548.292","PERIOD":"95.592","EPHEMERIS_TYPE":"0","MEAN_MOTION_DDOT":"0.0000000000000","OBJECT_NAME":"STARLINK-1362","SITE":"AFETR","BSTAR":"0.00131270000000","ECCENTRICITY":"0.00015490","PERIAPSIS":"546.146","ARG_OF_PERICENTER":"60.6349","COUNTRY_CODE":"US","RA_OF_ASC_NODE":"149.3594","FILE":"3363151","MEAN_ANOMALY":"299.4794"}];
